{
  "type": "FeatureCollection",
  "features": [
    {
      "type": "Feature",
      "properties": {
        "norad_id": 46277,
        "name": "NEMO-HD",
        "group": "resource",
        "lat": -69.24643433247937,
        "lon": 79.23898384620576,
        "alt_km": 451.98134190825203,
        "timestamp": "2025-12-26T18:39:31.930109+00:00",
        "meta_object_name": "NEMO-HD",
        "meta_object_id": "2020-061F",
        "meta_epoch": "2025-12-26T14:17:16.552608",
        "meta_mean_motion": 15.40611952,
        "meta_eccentricity": 9.99e-05,
        "meta_inclination": 97.2188,
        "meta_ra_of_asc_node": 59.5173,
        "meta_arg_of_pericenter": 54.6807,
        "meta_mean_anomaly": 305.4533,
        "meta_ephemeris_type": 0,
        "meta_classification_type": "U",
        "meta_norad_cat_id": 46277,
        "meta_element_set_no": 999,
        "meta_rev_at_epoch": 29537,
        "meta_bstar": 0.00027333791,
        "meta_mean_motion_dot": 0.00011048,
        "meta_mean_motion_ddot": 0,
        "tle_line1": "1 46277U 20061F   25360.59533047  .00011048  00000+0  27334-3 0  9992",
        "tle_line2": "2 46277  97.2188  59.5173 0000999  54.6807 305.4533 15.40611952295373"
      },
      "geometry": {
        "type": "Point",
        "coordinates": [
          79.23898384620576,
          -69.24643433247937
        ]
      }
    },
    {
      "type": "Feature",
      "properties": {
        "norad_id": 46984,
        "name": "SENTINEL-6A",
        "group": "resource",
        "lat": 23.256028958446482,
        "lon": 144.1676211593751,
        "alt_km": 1338.894991328394,
        "timestamp": "2025-12-26T18:39:31.930120+00:00",
        "meta_object_name": "SENTINEL-6A",
        "meta_object_id": "2020-086A",
        "meta_epoch": "2025-12-26T14:46:40.768032",
        "meta_mean_motion": 12.80930802,
        "meta_eccentricity": 0.00077678,
        "meta_inclination": 66.0403,
        "meta_ra_of_asc_node": 133.4873,
        "meta_arg_of_pericenter": 269.4522,
        "meta_mean_anomaly": 90.5603,
        "meta_ephemeris_type": 0,
        "meta_classification_type": "U",
        "meta_norad_cat_id": 46984,
        "meta_element_set_no": 999,
        "meta_rev_at_epoch": 23822,
        "meta_bstar": 7.3466105e-05,
        "meta_mean_motion_dot": -4.4e-07,
        "meta_mean_motion_ddot": 0,
        "tle_line1": "1 46984U 20086A   25360.61574963 -.00000044  00000+0  73466-4 0  9992",
        "tle_line2": "2 46984  66.0403 133.4873 0007767 269.4522  90.5603 12.80930802238221"
      },
      "geometry": {
        "type": "Point",
        "coordinates": [
          144.1676211593751,
          23.256028958446482
        ]
      }
    },
    {
      "type": "Feature",
      "properties": {
        "norad_id": 48079,
        "name": "GAOFEN-12 02",
        "group": "resource",
        "lat": -73.25124150261536,
        "lon": 146.91071738134886,
        "alt_km": 636.9257721922268,
        "timestamp": "2025-12-26T18:39:31.930130+00:00",
        "meta_object_name": "GAOFEN-12 02",
        "meta_object_id": "2021-026A",
        "meta_epoch": "2025-12-26T14:15:58.238784",
        "meta_mean_motion": 14.80691218,
        "meta_eccentricity": 0.00035342,
        "meta_inclination": 97.9858,
        "meta_ra_of_asc_node": 354.5344,
        "meta_arg_of_pericenter": 73.3392,
        "meta_mean_anomaly": 286.8208,
        "meta_ephemeris_type": 0,
        "meta_classification_type": "U",
        "meta_norad_cat_id": 48079,
        "meta_element_set_no": 999,
        "meta_rev_at_epoch": 25622,
        "meta_bstar": 7.8077582e-05,
        "meta_mean_motion_dot": 5.48e-06,
        "meta_mean_motion_ddot": 0,
        "tle_line1": "1 48079U 21026A   25360.59442406  .00000548  00000+0  78078-4 0  9999",
        "tle_line2": "2 48079  97.9858 354.5344 0003534  73.3392 286.8208 14.80691218256227"
      },
      "geometry": {
        "type": "Point",
        "coordinates": [
          146.91071738134886,
          -73.25124150261536
        ]
      }
    },
    {
      "type": "Feature",
      "properties": {
        "norad_id": 48268,
        "name": "PLEIADES NEO 3",
        "group": "resource",
        "lat": 11.756849727674485,
        "lon": 71.36219687540112,
        "alt_km": 625.1882986645569,
        "timestamp": "2025-12-26T18:39:31.930140+00:00",
        "meta_object_name": "PLEIADES NEO 3",
        "meta_object_id": "2021-034A",
        "meta_epoch": "2025-12-26T15:21:50.021856",
        "meta_mean_motion": 14.81674828,
        "meta_eccentricity": 0.00013761,
        "meta_inclination": 97.8942,
        "meta_ra_of_asc_node": 72.8817,
        "meta_arg_of_pericenter": 89.0783,
        "meta_mean_anomaly": 271.0588,
        "meta_ephemeris_type": 0,
        "meta_classification_type": "U",
        "meta_norad_cat_id": 48268,
        "meta_element_set_no": 999,
        "meta_rev_at_epoch": 25210,
        "meta_bstar": 0.00010009594,
        "meta_mean_motion_dot": 7.36e-06,
        "meta_mean_motion_ddot": 0,
        "tle_line1": "1 48268U 21034A   25360.64016229  .00000736  00000+0  10010-3 0  9994",
        "tle_line2": "2 48268  97.8942  72.8817 0001376  89.0783 271.0588 14.81674828252104"
      },
      "geometry": {
        "type": "Point",
        "coordinates": [
          71.36219687540112,
          11.756849727674485
        ]
      }
    },
    {
      "type": "Feature",
      "properties": {
        "norad_id": 49070,
        "name": "PLEIADES NEO 4",
        "group": "resource",
        "lat": -12.079424617132894,
        "lon": -108.68848858277295,
        "alt_km": 628.7469613553294,
        "timestamp": "2025-12-26T18:39:31.930153+00:00",
        "meta_object_name": "PLEIADES NEO 4",
        "meta_object_id": "2021-073E",
        "meta_epoch": "2025-12-26T14:33:11.646720",
        "meta_mean_motion": 14.81672056,
        "meta_eccentricity": 0.00013578,
        "meta_inclination": 97.8942,
        "meta_ra_of_asc_node": 72.8445,
        "meta_arg_of_pericenter": 87.8022,
        "meta_mean_anomaly": 272.3346,
        "meta_ephemeris_type": 0,
        "meta_classification_type": "U",
        "meta_norad_cat_id": 49070,
        "meta_element_set_no": 999,
        "meta_rev_at_epoch": 23581,
        "meta_bstar": -3.8770979e-05,
        "meta_mean_motion_dot": -3.57e-06,
        "meta_mean_motion_ddot": 0,
        "tle_line1": "1 49070U 21073E   25360.60638480 -.00000357  00000+0 -38771-4 0  9990",
        "tle_line2": "2 49070  97.8942  72.8445 0001357  87.8022 272.3346 14.81672056235810"
      },
      "geometry": {
        "type": "Point",
        "coordinates": [
          -108.68848858277295,
          -12.079424617132894
        ]
      }
    },
    {
      "type": "Feature",
      "properties": {
        "norad_id": 49260,
        "name": "LANDSAT 9",
        "group": "resource",
        "lat": 48.54389712908706,
        "lon": 59.279998420989344,
        "alt_km": 697.579474055532,
        "timestamp": "2025-12-26T18:39:31.930163+00:00",
        "meta_object_name": "LANDSAT 9",
        "meta_object_id": "2021-088A",
        "meta_epoch": "2025-12-26T15:08:15.499680",
        "meta_mean_motion": 14.57112026,
        "meta_eccentricity": 0.00011085,
        "meta_inclination": 98.2076,
        "meta_ra_of_asc_node": 68.5392,
        "meta_arg_of_pericenter": 93.7415,
        "meta_mean_anomaly": 266.3911,
        "meta_ephemeris_type": 0,
        "meta_classification_type": "U",
        "meta_norad_cat_id": 49260,
        "meta_element_set_no": 999,
        "meta_rev_at_epoch": 22587,
        "meta_bstar": 0.0001141908,
        "meta_mean_motion_dot": 4.69e-06,
        "meta_mean_motion_ddot": 0,
        "tle_line1": "1 49260U 21088A   25360.63073495  .00000469  00000+0  11419-3 0  9990",
        "tle_line2": "2 49260  98.2076  68.5392 0001108  93.7415 266.3911 14.57112026225878"
      },
      "geometry": {
        "type": "Point",
        "coordinates": [
          59.279998420989344,
          48.54389712908706
        ]
      }
    },
    {
      "type": "Feature",
      "properties": {
        "norad_id": 51444,
        "name": "CSG-2",
        "group": "resource",
        "lat": -67.63248459003937,
        "lon": -17.780723801853547,
        "alt_km": 630.7688745233891,
        "timestamp": "2025-12-26T18:39:31.930173+00:00",
        "meta_object_name": "CSG-2",
        "meta_object_id": "2022-008A",
        "meta_epoch": "2025-12-26T14:17:54.750912",
        "meta_mean_motion": 14.82157302,
        "meta_eccentricity": 0.00014539,
        "meta_inclination": 97.8807,
        "meta_ra_of_asc_node": 181.71,
        "meta_arg_of_pericenter": 83.858,
        "meta_mean_anomaly": 276.2798,
        "meta_ephemeris_type": 0,
        "meta_classification_type": "U",
        "meta_norad_cat_id": 51444,
        "meta_element_set_no": 999,
        "meta_rev_at_epoch": 21102,
        "meta_bstar": 8.2443374e-05,
        "meta_mean_motion_dot": 6.04e-06,
        "meta_mean_motion_ddot": 0,
        "tle_line1": "1 51444U 22008A   25360.59577258  .00000604  00000+0  82443-4 0  9998",
        "tle_line2": "2 51444  97.8807 181.7100 0001453  83.8580 276.2798 14.82157302211022"
      },
      "geometry": {
        "type": "Point",
        "coordinates": [
          -17.780723801853547,
          -67.63248459003937
        ]
      }
    }
  ]
}